<?xml version="1.0" encoding="UTF-8"?>
<ndm xmlns:xsi="http://www.w3.org/2001/XMLSchema-instance" xsi:noNamespaceSchemaLocation="https://sanaregistry.org/r/ndmxml_unqualified/ndmxml-2.0.0-master-2.0.xsd">
<omm id="CCSDS_OMM_VERS" version="2.0">
<header><CREATION_DATE/><ORIGINATOR/></header><body><segment><metadata><OBJECT_NAME>KUIPER-00035</OBJECT_NAME><OBJECT_ID>2025-088AA</OBJECT_ID><CENTER_NAME>EARTH</CENTER_NAME><REF_FRAME>TEME</REF_FRAME><TIME_SYSTEM>UTC</TIME_SYSTEM><MEAN_ELEMENT_THEORY>SGP4</MEAN_ELEMENT_THEORY></metadata><data><meanElements><EPOCH>2025-11-07T03:22:51.096288</EPOCH><MEAN_MOTION>14.79892284</MEAN_MOTION><ECCENTRICITY>.00057373</ECCENTRICITY><INCLINATION>51.9020</INCLINATION><RA_OF_ASC_NODE>296.0213</RA_OF_ASC_NODE><ARG_OF_PERICENTER>29.6709</ARG_OF_PERICENTER><MEAN_ANOMALY>330.4578</MEAN_ANOMALY></meanElements><tleParameters><EPHEMERIS_TYPE>0</EPHEMERIS_TYPE><CLASSIFICATION_TYPE>U</CLASSIFICATION_TYPE><NORAD_CAT_ID>63748</NORAD_CAT_ID><ELEMENT_SET_NO>999</ELEMENT_SET_NO><REV_AT_EPOCH>2936</REV_AT_EPOCH><BSTAR>.57669546E-3</BSTAR><MEAN_MOTION_DOT>.4173E-4</MEAN_MOTION_DOT><MEAN_MOTION_DDOT>0</MEAN_MOTION_DDOT></tleParameters></data></segment></body></omm>
<omm id="CCSDS_OMM_VERS" version="2.0">
<header><CREATION_DATE/><ORIGINATOR/></header><body><segment><metadata><OBJECT_NAME>KUIPER-00037</OBJECT_NAME><OBJECT_ID>2025-088AB</OBJECT_ID><CENTER_NAME>EARTH</CENTER_NAME><REF_FRAME>TEME</REF_FRAME><TIME_SYSTEM>UTC</TIME_SYSTEM><MEAN_ELEMENT_THEORY>SGP4</MEAN_ELEMENT_THEORY></metadata><data><meanElements><EPOCH>2025-11-07T03:24:12.914496</EPOCH><MEAN_MOTION>14.80017139</MEAN_MOTION><ECCENTRICITY>.00081115</ECCENTRICITY><INCLINATION>51.9008</INCLINATION><RA_OF_ASC_NODE>294.9633</RA_OF_ASC_NODE><ARG_OF_PERICENTER>340.3848</ARG_OF_PERICENTER><MEAN_ANOMALY>19.6801</MEAN_ANOMALY></meanElements><tleParameters><EPHEMERIS_TYPE>0</EPHEMERIS_TYPE><CLASSIFICATION_TYPE>U</CLASSIFICATION_TYPE><NORAD_CAT_ID>63749</NORAD_CAT_ID><ELEMENT_SET_NO>999</ELEMENT_SET_NO><REV_AT_EPOCH>3016</REV_AT_EPOCH><BSTAR>.27445687E-3</BSTAR><MEAN_MOTION_DOT>.1875E-4</MEAN_MOTION_DOT><MEAN_MOTION_DDOT>0</MEAN_MOTION_DDOT></tleParameters></data></segment></body></omm>
<omm id="CCSDS_OMM_VERS" version="2.0">
<header><CREATION_DATE/><ORIGINATOR/></header><body><segment><metadata><OBJECT_NAME>KUIPER-00038</OBJECT_NAME><OBJECT_ID>2025-088AC</OBJECT_ID><CENTER_NAME>EARTH</CENTER_NAME><REF_FRAME>TEME</REF_FRAME><TIME_SYSTEM>UTC</TIME_SYSTEM><MEAN_ELEMENT_THEORY>SGP4</MEAN_ELEMENT_THEORY></metadata><data><meanElements><EPOCH>2025-11-07T05:26:47.216832</EPOCH><MEAN_MOTION>14.80184144</MEAN_MOTION><ECCENTRICITY>.00072507</ECCENTRICITY><INCLINATION>51.9024</INCLINATION><RA_OF_ASC_NODE>279.6111</RA_OF_ASC_NODE><ARG_OF_PERICENTER>32.2665</ARG_OF_PERICENTER><MEAN_ANOMALY>327.8740</MEAN_ANOMALY></meanElements><tleParameters><EPHEMERIS_TYPE>0</EPHEMERIS_TYPE><CLASSIFICATION_TYPE>U</CLASSIFICATION_TYPE><NORAD_CAT_ID>63750</NORAD_CAT_ID><ELEMENT_SET_NO>999</ELEMENT_SET_NO><REV_AT_EPOCH>2938</REV_AT_EPOCH><BSTAR>.62609985E-3</BSTAR><MEAN_MOTION_DOT>.4583E-4</MEAN_MOTION_DOT><MEAN_MOTION_DDOT>0</MEAN_MOTION_DDOT></tleParameters></data></segment></body></omm>
<omm id="CCSDS_OMM_VERS" version="2.0">
<header><CREATION_DATE/><ORIGINATOR/></header><body><segment><metadata><OBJECT_NAME>KUIPER-00039</OBJECT_NAME><OBJECT_ID>2025-134A</OBJECT_ID><CENTER_NAME>EARTH</CENTER_NAME><REF_FRAME>TEME</REF_FRAME><TIME_SYSTEM>UTC</TIME_SYSTEM><MEAN_ELEMENT_THEORY>SGP4</MEAN_ELEMENT_THEORY></metadata><data><meanElements><EPOCH>2025-11-06T15:47:58.252704</EPOCH><MEAN_MOTION>14.79951212</MEAN_MOTION><ECCENTRICITY>.00116071</ECCENTRICITY><INCLINATION>51.9016</INCLINATION><RA_OF_ASC_NODE>57.1197</RA_OF_ASC_NODE><ARG_OF_PERICENTER>244.2895</ARG_OF_PERICENTER><MEAN_ANOMALY>115.6869</MEAN_ANOMALY></meanElements><tleParameters><EPHEMERIS_TYPE>0</EPHEMERIS_TYPE><CLASSIFICATION_TYPE>U</CLASSIFICATION_TYPE><NORAD_CAT_ID>64500</NORAD_CAT_ID><ELEMENT_SET_NO>999</ELEMENT_SET_NO><REV_AT_EPOCH>2185</REV_AT_EPOCH><BSTAR>.8337924E-3</BSTAR><MEAN_MOTION_DOT>.6148E-4</MEAN_MOTION_DOT><MEAN_MOTION_DDOT>0</MEAN_MOTION_DDOT></tleParameters></data></segment></body></omm>
<omm id="CCSDS_OMM_VERS" version="2.0">
<header><CREATION_DATE/><ORIGINATOR/></header><body><segment><metadata><OBJECT_NAME>KUIPER-00040</OBJECT_NAME><OBJECT_ID>2025-134B</OBJECT_ID><CENTER_NAME>EARTH</CENTER_NAME><REF_FRAME>TEME</REF_FRAME><TIME_SYSTEM>UTC</TIME_SYSTEM><MEAN_ELEMENT_THEORY>SGP4</MEAN_ELEMENT_THEORY></metadata><data><meanElements><EPOCH>2025-11-06T18:44:44.371104</EPOCH><MEAN_MOTION>14.79965390</MEAN_MOTION><ECCENTRICITY>.00174822</ECCENTRICITY><INCLINATION>51.9010</INCLINATION><RA_OF_ASC_NODE>67.7397</RA_OF_ASC_NODE><ARG_OF_PERICENTER>221.4037</ARG_OF_PERICENTER><MEAN_ANOMALY>138.5602</MEAN_ANOMALY></meanElements><tleParameters><EPHEMERIS_TYPE>0</EPHEMERIS_TYPE><CLASSIFICATION_TYPE>U</CLASSIFICATION_TYPE><NORAD_CAT_ID>64501</NORAD_CAT_ID><ELEMENT_SET_NO>999</ELEMENT_SET_NO><REV_AT_EPOCH>2171</REV_AT_EPOCH><BSTAR>.85634493E-3</BSTAR><MEAN_MOTION_DOT>.6331E-4</MEAN_MOTION_DOT><MEAN_MOTION_DDOT>0</MEAN_MOTION_DDOT></tleParameters></data></segment></body></omm>
<omm id="CCSDS_OMM_VERS" version="2.0">
<header><CREATION_DATE/><ORIGINATOR/></header><body><segment><metadata><OBJECT_NAME>KUIPER-00041</OBJECT_NAME><OBJECT_ID>2025-134C</OBJECT_ID><CENTER_NAME>EARTH</CENTER_NAME><REF_FRAME>TEME</REF_FRAME><TIME_SYSTEM>UTC</TIME_SYSTEM><MEAN_ELEMENT_THEORY>SGP4</MEAN_ELEMENT_THEORY></metadata><data><meanElements><EPOCH>2025-11-06T17:05:50.433792</EPOCH><MEAN_MOTION>14.79964130</MEAN_MOTION><ECCENTRICITY>.00138222</ECCENTRICITY><INCLINATION>51.9000</INCLINATION><RA_OF_ASC_NODE>69.3988</RA_OF_ASC_NODE><ARG_OF_PERICENTER>214.4225</ARG_OF_PERICENTER><MEAN_ANOMALY>145.5843</MEAN_ANOMALY></meanElements><tleParameters><EPHEMERIS_TYPE>0</EPHEMERIS_TYPE><CLASSIFICATION_TYPE>U</CLASSIFICATION_TYPE><NORAD_CAT_ID>64502</NORAD_CAT_ID><ELEMENT_SET_NO>999</ELEMENT_SET_NO><REV_AT_EPOCH>2168</REV_AT_EPOCH><BSTAR>.79258261E-3</BSTAR><MEAN_MOTION_DOT>.5837E-4</MEAN_MOTION_DOT><MEAN_MOTION_DDOT>0</MEAN_MOTION_DDOT></tleParameters></data></segment></body></omm>
<omm id="CCSDS_OMM_VERS" version="2.0">
<header><CREATION_DATE/><ORIGINATOR/></header><body><segment><metadata><OBJECT_NAME>KUIPER-00042</OBJECT_NAME><OBJECT_ID>2025-134D</OBJECT_ID><CENTER_NAME>EARTH</CENTER_NAME><REF_FRAME>TEME</REF_FRAME><TIME_SYSTEM>UTC</TIME_SYSTEM><MEAN_ELEMENT_THEORY>SGP4</MEAN_ELEMENT_THEORY></metadata><data><meanElements><EPOCH>2025-11-06T17:11:11.910048</EPOCH><MEAN_MOTION>14.79942406</MEAN_MOTION><ECCENTRICITY>.00123691</ECCENTRICITY><INCLINATION>51.9002</INCLINATION><RA_OF_ASC_NODE>65.3830</RA_OF_ASC_NODE><ARG_OF_PERICENTER>225.6352</ARG_OF_PERICENTER><MEAN_ANOMALY>134.3598</MEAN_ANOMALY></meanElements><tleParameters><EPHEMERIS_TYPE>0</EPHEMERIS_TYPE><CLASSIFICATION_TYPE>U</CLASSIFICATION_TYPE><NORAD_CAT_ID>64503</NORAD_CAT_ID><ELEMENT_SET_NO>999</ELEMENT_SET_NO><REV_AT_EPOCH>2174</REV_AT_EPOCH><BSTAR>.10412514E-2</BSTAR><MEAN_MOTION_DOT>.7735E-4</MEAN_MOTION_DOT><MEAN_MOTION_DDOT>0</MEAN_MOTION_DDOT></tleParameters></data></segment></body></omm>
<omm id="CCSDS_OMM_VERS" version="2.0">
<header><CREATION_DATE/><ORIGINATOR/></header><body><segment><metadata><OBJECT_NAME>KUIPER-00043</OBJECT_NAME><OBJECT_ID>2025-134E</OBJECT_ID><CENTER_NAME>EARTH</CENTER_NAME><REF_FRAME>TEME</REF_FRAME><TIME_SYSTEM>UTC</TIME_SYSTEM><MEAN_ELEMENT_THEORY>SGP4</MEAN_ELEMENT_THEORY></metadata><data><meanElements><EPOCH>2025-11-06T15:45:42.242688</EPOCH><MEAN_MOTION>14.79945505</MEAN_MOTION><ECCENTRICITY>.00033026</ECCENTRICITY><INCLINATION>51.9028</INCLINATION><RA_OF_ASC_NODE>58.0839</RA_OF_ASC_NODE><ARG_OF_PERICENTER>217.6078</ARG_OF_PERICENTER><MEAN_ANOMALY>142.4654</MEAN_ANOMALY></meanElements><tleParameters><EPHEMERIS_TYPE>0</EPHEMERIS_TYPE><CLASSIFICATION_TYPE>U</CLASSIFICATION_TYPE><NORAD_CAT_ID>64504</NORAD_CAT_ID><ELEMENT_SET_NO>999</ELEMENT_SET_NO><REV_AT_EPOCH>2184</REV_AT_EPOCH><BSTAR>.88216808E-3</BSTAR><MEAN_MOTION_DOT>.6512E-4</MEAN_MOTION_DOT><MEAN_MOTION_DDOT>0</MEAN_MOTION_DDOT></tleParameters></data></segment></body></omm>

</ndm>
